CCSDS_OMM_VERS = 2.0
CREATION_DATE  = 
ORIGINATOR     = 

OBJECT_NAME    = ORBVIEW 2 (SEASTAR)
OBJECT_ID      = 1997-037A
CENTER_NAME    = EARTH
REF_FRAME      = TEME
TIME_SYSTEM    = UTC
MEAN_ELEMENT_THEORY = SGP/SGP4

EPOCH          = 2025-12-03T10:26:47.900832
MEAN_MOTION    = 14.35405807
ECCENTRICITY   = .0002127
INCLINATION    = 98.8454
RA_OF_ASC_NODE = 134.2757
ARG_OF_PERICENTER = 10.4630
MEAN_ANOMALY   = 349.6598

EPHEMERIS_TYPE = 0
CLASSIFICATION_TYPE = U
NORAD_CAT_ID   = 24883
ELEMENT_SET_NO = 999
REV_AT_EPOCH   = 49466
BSTAR          = .20664E-3
MEAN_MOTION_DOT = .547E-5
MEAN_MOTION_DDOT = 0

CCSDS_OMM_VERS = 2.0
CREATION_DATE  = 
ORIGINATOR     = 

OBJECT_NAME    = SL-16 R/B
OBJECT_ID      = 1998-043G
CENTER_NAME    = EARTH
REF_FRAME      = TEME
TIME_SYSTEM    = UTC
MEAN_ELEMENT_THEORY = SGP/SGP4

EPOCH          = 2025-12-03T11:11:43.980000
MEAN_MOTION    = 14.26021857
ECCENTRICITY   = .000891
INCLINATION    = 98.8109
RA_OF_ASC_NODE = 285.2332
ARG_OF_PERICENTER = 296.7638
MEAN_ANOMALY   = 63.2630

EPHEMERIS_TYPE = 0
CLASSIFICATION_TYPE = U
NORAD_CAT_ID   = 25400
ELEMENT_SET_NO = 999
REV_AT_EPOCH   = 42527
BSTAR          = .68341E-4
MEAN_MOTION_DOT = .118E-5
MEAN_MOTION_DDOT = 0

CCSDS_OMM_VERS = 2.0
CREATION_DATE  = 
ORIGINATOR     = 

OBJECT_NAME    = SL-16 R/B
OBJECT_ID      = 1998-045B
CENTER_NAME    = EARTH
REF_FRAME      = TEME
TIME_SYSTEM    = UTC
MEAN_ELEMENT_THEORY = SGP/SGP4

EPOCH          = 2025-12-03T12:16:48.658656
MEAN_MOTION    = 14.16175290
ECCENTRICITY   = .0007461
INCLINATION    = 71.0126
RA_OF_ASC_NODE = 23.8334
ARG_OF_PERICENTER = 191.0698
MEAN_ANOMALY   = 169.0262

EPHEMERIS_TYPE = 0
CLASSIFICATION_TYPE = U
NORAD_CAT_ID   = 25407
ELEMENT_SET_NO = 999
REV_AT_EPOCH   = 41348
BSTAR          = .82072E-4
MEAN_MOTION_DOT = .115E-5
MEAN_MOTION_DDOT = 0

CCSDS_OMM_VERS = 2.0
CREATION_DATE  = 
ORIGINATOR     = 

OBJECT_NAME    = ISS (ZARYA)
OBJECT_ID      = 1998-067A
CENTER_NAME    = EARTH
REF_FRAME      = TEME
TIME_SYSTEM    = UTC
MEAN_ELEMENT_THEORY = SGP/SGP4

EPOCH          = 2025-12-03T10:43:27.497856
MEAN_MOTION    = 15.49271748
ECCENTRICITY   = .0003633
INCLINATION    = 51.6306
RA_OF_ASC_NODE = 188.4862
ARG_OF_PERICENTER = 200.0092
MEAN_ANOMALY   = 160.0755

EPHEMERIS_TYPE = 0
CLASSIFICATION_TYPE = U
NORAD_CAT_ID   = 25544
ELEMENT_SET_NO = 999
REV_AT_EPOCH   = 54141
BSTAR          = .21633E-3
MEAN_MOTION_DOT = .116E-3
MEAN_MOTION_DDOT = 0

CCSDS_OMM_VERS = 2.0
CREATION_DATE  = 
ORIGINATOR     = 

OBJECT_NAME    = CZ-4B R/B
OBJECT_ID      = 1999-025C
CENTER_NAME    = EARTH
REF_FRAME      = TEME
TIME_SYSTEM    = UTC
MEAN_ELEMENT_THEORY = SGP/SGP4

EPOCH          = 2025-12-03T08:32:53.854368
MEAN_MOTION    = 14.18239914
ECCENTRICITY   = .0036105
INCLINATION    = 98.6781
RA_OF_ASC_NODE = 18.8455
ARG_OF_PERICENTER = 261.7259
MEAN_ANOMALY   = 108.7933

EPHEMERIS_TYPE = 0
CLASSIFICATION_TYPE = U
NORAD_CAT_ID   = 25732
ELEMENT_SET_NO = 999
REV_AT_EPOCH   = 37451
BSTAR          = .91868E-4
MEAN_MOTION_DOT = .147E-5
MEAN_MOTION_DDOT = 0

CCSDS_OMM_VERS = 2.0
CREATION_DATE  = 
ORIGINATOR     = 

OBJECT_NAME    = OKEAN-O
OBJECT_ID      = 1999-039A
CENTER_NAME    = EARTH
REF_FRAME      = TEME
TIME_SYSTEM    = UTC
MEAN_ELEMENT_THEORY = SGP/SGP4

EPOCH          = 2025-12-03T09:25:47.682336
MEAN_MOTION    = 14.80134844
ECCENTRICITY   = .000081
INCLINATION    = 97.9616
RA_OF_ASC_NODE = 33.1749
ARG_OF_PERICENTER = 77.0837
MEAN_ANOMALY   = 283.0465

EPHEMERIS_TYPE = 0
CLASSIFICATION_TYPE = U
NORAD_CAT_ID   = 25860
ELEMENT_SET_NO = 999
REV_AT_EPOCH   = 42014
BSTAR          = .15934E-3
MEAN_MOTION_DOT = .1157E-4
MEAN_MOTION_DDOT = 0

CCSDS_OMM_VERS = 2.0
CREATION_DATE  = 
ORIGINATOR     = 

OBJECT_NAME    = SL-16 R/B
OBJECT_ID      = 1999-039B
CENTER_NAME    = EARTH
REF_FRAME      = TEME
TIME_SYSTEM    = UTC
MEAN_ELEMENT_THEORY = SGP/SGP4

EPOCH          = 2025-12-03T09:31:39.397728
MEAN_MOTION    = 14.81564336
ECCENTRICITY   = .0014234
INCLINATION    = 98.0140
RA_OF_ASC_NODE = 31.5471
ARG_OF_PERICENTER = 205.4352
MEAN_ANOMALY   = 154.6162

EPHEMERIS_TYPE = 0
CLASSIFICATION_TYPE = U
NORAD_CAT_ID   = 25861
ELEMENT_SET_NO = 999
REV_AT_EPOCH   = 42260
BSTAR          = .13699E-3
MEAN_MOTION_DOT = .1023E-4
MEAN_MOTION_DDOT = 0

CCSDS_OMM_VERS = 2.0
CREATION_DATE  = 
ORIGINATOR     = 

OBJECT_NAME    = DELTA 2 R/B
OBJECT_ID      = 1999-041E
CENTER_NAME    = EARTH
REF_FRAME      = TEME
TIME_SYSTEM    = UTC
MEAN_ELEMENT_THEORY = SGP/SGP4

EPOCH          = 2025-12-03T10:29:36.272832
MEAN_MOTION    = 14.11361817
ECCENTRICITY   = .0504826
INCLINATION    = 51.7621
RA_OF_ASC_NODE = 325.5800
ARG_OF_PERICENTER = 64.3516
MEAN_ANOMALY   = 300.8671

EPHEMERIS_TYPE = 0
CLASSIFICATION_TYPE = U
NORAD_CAT_ID   = 25876
ELEMENT_SET_NO = 999
REV_AT_EPOCH   = 34943
BSTAR          = .32767E-3
MEAN_MOTION_DOT = .1791E-4
MEAN_MOTION_DDOT = 0

CCSDS_OMM_VERS = 2.0
CREATION_DATE  = 
ORIGINATOR     = 

OBJECT_NAME    = HELIOS 1B
OBJECT_ID      = 1999-064A
CENTER_NAME    = EARTH
REF_FRAME      = TEME
TIME_SYSTEM    = UTC
MEAN_ELEMENT_THEORY = SGP/SGP4

EPOCH          = 2025-12-03T10:50:26.986272
MEAN_MOTION    = 14.87217492
ECCENTRICITY   = .0002162
INCLINATION    = 98.1756
RA_OF_ASC_NODE = 231.8418
ARG_OF_PERICENTER = 54.8874
MEAN_ANOMALY   = 305.2543

EPHEMERIS_TYPE = 0
CLASSIFICATION_TYPE = U
NORAD_CAT_ID   = 25977
ELEMENT_SET_NO = 999
REV_AT_EPOCH   = 67095
BSTAR          = .37375E-3
MEAN_MOTION_DOT = .3307E-4
MEAN_MOTION_DDOT = 0

CCSDS_OMM_VERS = 2.0
CREATION_DATE  = 
ORIGINATOR     = 

OBJECT_NAME    = TERRA
OBJECT_ID      = 1999-068A
CENTER_NAME    = EARTH
REF_FRAME      = TEME
TIME_SYSTEM    = UTC
MEAN_ELEMENT_THEORY = SGP/SGP4

EPOCH          = 2025-12-03T10:21:41.743296
MEAN_MOTION    = 14.60935008
ECCENTRICITY   = .0003406
INCLINATION    = 97.9762
RA_OF_ASC_NODE = 29.4571
ARG_OF_PERICENTER = 116.5556
MEAN_ANOMALY   = 9.4738

EPHEMERIS_TYPE = 0
CLASSIFICATION_TYPE = U
NORAD_CAT_ID   = 25994
ELEMENT_SET_NO = 999
REV_AT_EPOCH   = 38102
BSTAR          = .17035E-3
MEAN_MOTION_DOT = .79E-5
MEAN_MOTION_DDOT = 0

CCSDS_OMM_VERS = 2.0
CREATION_DATE  = 
ORIGINATOR     = 

OBJECT_NAME    = SL-16 R/B
OBJECT_ID      = 2000-006B
CENTER_NAME    = EARTH
REF_FRAME      = TEME
TIME_SYSTEM    = UTC
MEAN_ELEMENT_THEORY = SGP/SGP4

EPOCH          = 2025-12-03T08:39:36.931104
MEAN_MOTION    = 14.15807684
ECCENTRICITY   = .0017951
INCLINATION    = 71.0028
RA_OF_ASC_NODE = 300.3776
ARG_OF_PERICENTER = 321.7304
MEAN_ANOMALY   = 38.2543

EPHEMERIS_TYPE = 0
CLASSIFICATION_TYPE = U
NORAD_CAT_ID   = 26070
ELEMENT_SET_NO = 999
REV_AT_EPOCH   = 33492
BSTAR          = .18916E-3
MEAN_MOTION_DOT = .325E-5
MEAN_MOTION_DDOT = 0

CCSDS_OMM_VERS = 2.0
CREATION_DATE  = 
ORIGINATOR     = 

OBJECT_NAME    = TITAN 4B R/B
OBJECT_ID      = 2000-047B
CENTER_NAME    = EARTH
REF_FRAME      = TEME
TIME_SYSTEM    = UTC
MEAN_ELEMENT_THEORY = SGP/SGP4

EPOCH          = 2025-12-03T11:04:55.344288
MEAN_MOTION    = 15.08668500
ECCENTRICITY   = .0039663
INCLINATION    = 67.9897
RA_OF_ASC_NODE = 310.9103
ARG_OF_PERICENTER = 155.6249
MEAN_ANOMALY   = 204.6787

EPHEMERIS_TYPE = 0
CLASSIFICATION_TYPE = U
NORAD_CAT_ID   = 26474
ELEMENT_SET_NO = 999
REV_AT_EPOCH   = 37839
BSTAR          = .33787E-3
MEAN_MOTION_DOT = .5271E-4
MEAN_MOTION_DDOT = 0

