ORBVIEW 2 (SEASTAR)     
1 24883U 97037A   25337.43527663  .00000547  00000+0  20664-3 0  9993
2 24883  98.8454 134.2757 0002127  10.4630 349.6598 14.35405807494660
SL-16 R/B               
1 25400U 98043G   25337.46648125  .00000118  00000+0  68341-4 0  9996
2 25400  98.8109 285.2332 0008910 296.7638  63.2630 14.26021857425278
SL-16 R/B               
1 25407U 98045B   25337.51167429  .00000115  00000+0  82072-4 0  9998
2 25407  71.0126  23.8334 0007461 191.0698 169.0262 14.16175290413484
ISS (ZARYA)             
1 25544U 98067A   25337.44684604  .00011600  00000+0  21633-3 0  9991
2 25544  51.6306 188.4862 0003633 200.0092 160.0755 15.49271748541415
CZ-4B R/B               
1 25732U 99025C   25337.35617887  .00000147  00000+0  91868-4 0  9996
2 25732  98.6781  18.8455 0036105 261.7259 108.7933 14.18239914374511
OKEAN-O                 
1 25860U 99039A   25337.39291299  .00001157  00000+0  15934-3 0  9993
2 25860  97.9616  33.1749 0000810  77.0837 283.0465 14.80134844420145
SL-16 R/B               
1 25861U 99039B   25337.39698377  .00001023  00000+0  13699-3 0  9990
2 25861  98.0140  31.5471 0014234 205.4352 154.6162 14.81564336422602
DELTA 2 R/B             
1 25876U 99041E   25337.43722538  .00001791  00000+0  32767-3 0  9990
2 25876  51.7621 325.5800 0504826  64.3516 300.8671 14.11361817349436
HELIOS 1B               
1 25977U 99064A   25337.45170123  .00003307  00000+0  37375-3 0  9991
2 25977  98.1756 231.8418 0002162  54.8874 305.2543 14.87217492670956
TERRA                   
1 25994U 99068A   25337.43173314  .00000790  00000+0  17035-3 0  9991
2 25994  97.9762  29.4571 0003406 116.5556   9.4738 14.60935008381022
SL-16 R/B               
1 26070U 00006B   25337.36084411  .00000325  00000+0  18916-3 0  9995
2 26070  71.0028 300.3776 0017951 321.7304  38.2543 14.15807684334924
TITAN 4B R/B            
1 26474U 00047B   25337.46175167  .00005271  00000+0  33787-3 0  9996
2 26474  67.9897 310.9103 0039663 155.6249 204.6787 15.08668500378390
